{
  "norad_id": 62894,
  "name": "STARLINK-32909",
  "history": [
    {
      "epoch": "2026-03-28T17:19:58.283904Z",
      "apogee_km": 483.92748174868575,
      "perigee_km": 482.1915990239677,
      "latitude_deg": 2.150495957288512e-06,
      "longitude_deg": 132.00988170850192,
      "height_km": 482.9916184206162,
      "semi_major_axis_km": 6861.196540386327,
      "eccentricity": 0.0001265,
      "inclination_deg": 42.9965,
      "raan_deg": 218.1413,
      "arg_perigee_deg": 259.6511,
      "mean_anomaly_deg": 100.4198,
      "mean_motion_rev_day": 15.27576512
    },
    {
      "epoch": "2026-03-29T01:10:45.534432Z",
      "apogee_km": 483.61070163951626,
      "perigee_km": 482.495072163907,
      "latitude_deg": -4.660343203200487e-05,
      "longitude_deg": 12.143909826502318,
      "height_km": 482.9208959908755,
      "semi_major_axis_km": 6861.189886901711,
      "eccentricity": 8.13e-05,
      "inclination_deg": 42.9967,
      "raan_deg": 216.2945,
      "arg_perigee_deg": 260.4858,
      "mean_anomaly_deg": 99.5901,
      "mean_motion_rev_day": 15.27578734
    }
  ]
}